$$SOE
2461288.500000000, A.D. 2026-Sep-05 00:00:00.0000, -2.810793770810691E+08, -2.349704469135180E+08, -2.784292840999573E+06,
2461295.500000000, A.D. 2026-Sep-12 00:00:00.0000, -2.727597030506843E+08, -2.422601849139384E+08, -1.590832066791818E+06,
2461302.500000000, A.D. 2026-Sep-19 00:00:00.0000, -2.641673352760351E+08, -2.493076962027628E+08, -3.957829145082384E+05,
2461309.500000000, A.D. 2026-Sep-26 00:00:00.0000, -2.553074024365546E+08, -2.561026675563686E+08, 7.996649590620697E+05,
2461316.500000000, A.D. 2026-Oct-03 00:00:00.0000, -2.461854099807012E+08, -2.626347372759210E+08, 1.994289721840605E+06,
2461323.500000000, A.D. 2026-Oct-10 00:00:00.0000, -2.368072562191834E+08, -2.688935043214733E+08, 3.186836892083794E+06,
2461330.500000000, A.D. 2026-Oct-17 00:00:00.0000, -2.271792488587568E+08, -2.748685387969373E+08, 4.376018929225415E+06,
2461337.500000000, A.D. 2026-Oct-24 00:00:00.0000, -2.173081219026863E+08, -2.805493939078281E+08, 5.560514897562087E+06,
2461344.500000000, A.D. 2026-Oct-31 00:00:00.0000, -2.072010527584863E+08, -2.859256195606492E+08, 6.738970201140821E+06,
2461351.500000000, A.D. 2026-Nov-07 00:00:00.0000, -1.968656791412586E+08, -2.909867776351000E+08, 7.909996378779113E+06,
2461358.500000000, A.D. 2026-Nov-14 00:00:00.0000, -1.863101154862573E+08, -2.957224581491180E+08, 9.072171028453052E+06,
2461365.500000000, A.D. 2026-Nov-21 00:00:00.0000, -1.755429705820904E+08, -3.001222957427931E+08, 1.022403809916256E+07,
2461372.500000000, A.D. 2026-Nov-28 00:00:00.0000, -1.645733673057396E+08, -3.041759895980590E+08, 1.136410841311911E+07,
2461379.500000000, A.D. 2026-Dec-05 00:00:00.0000, -1.534109607076358E+08, -3.078733275617461E+08, 1.249086005105585E+07,
2461386.500000000, A.D. 2026-Dec-12 00:00:00.0000, -1.420659541338694E+08, -3.112042114702571E+08, 1.360273885982735E+07,
2461393.500000000, A.D. 2026-Dec-19 00:00:00.0000, -1.305491151053309E+08, -3.141586837718991E+08, 1.469815927721588E+07,
2461400.500000000, A.D. 2026-Dec-26 00:00:00.0000, -1.188717909074854E+08, -3.167269564091418E+08, 1.577550543819553E+07,
2461407.500000000, A.D. 2027-Jan-02 00:00:00.0000, -1.070459234038018E+08, -3.188994422360307E+08, 1.683313254434220E+07,
2461414.500000000, A.D. 2027-Jan-09 00:00:00.0000, -9.508406272128361E+07, -3.206667890240043E+08, 1.786936851020682E+07,
2461421.500000000, A.D. 2027-Jan-16 00:00:00.0000, -8.299937951582967E+07, -3.220199161083055E+08, 1.888251590771751E+07,
2461428.500000000, A.D. 2027-Jan-23 00:00:00.0000, -7.080567549333906E+07, -3.229500537581146E+08, 1.987085422554068E+07,
2461435.500000000, A.D. 2027-Jan-30 00:00:00.0000, -5.851739169856493E+07, -3.234487853379955E+08, 2.083264244680116E+07,
2461442.500000000, A.D. 2027-Feb-06 00:00:00.0000, -4.614961382366715E+07, -3.235080919124229E+08, 2.176612195793617E+07,
2461449.500000000, A.D. 2027-Feb-13 00:00:00.0000, -3.371807465141518E+07, -3.231203980331941E+08, 2.266951995346448E+07,
2461456.500000000, A.D. 2027-Feb-20 00:00:00.0000, -2.123915563074467E+07, -3.222786194220998E+08, 2.354105350993015E+07,
2461463.500000000, A.D. 2027-Feb-27 00:00:00.0000, -8.729885803296655E+06, -3.209762156432670E+08, 2.437893395731506E+07,
2461470.500000000, A.D. 2027-Mar-06 00:00:00.0000, 3.792065335932253E+06, -3.192072456820158E+08, 2.518137144556631E+07,
2461477.500000000, A.D. 2027-Mar-13 00:00:00.0000, 1.630839984825198E+07, -3.169664241703205E+08, 2.594658003556322E+07,
2461484.500000000, A.D. 2027-Mar-20 00:00:00.0000, 2.880020750658025E+07, -3.142491788236495E+08, 2.667278336094204E+07,
2461491.500000000, A.D. 2027-Mar-27 00:00:00.0000, 4.124798669638228E+07, -3.110517093018305E+08, 2.735822080249473E+07,
2461498.500000000, A.D. 2027-Apr-03 00:00:00.0000, 5.363167065085430E+07, -3.073710471320378E+08, 2.800115414932555E+07,
2461505.500000000, A.D. 2027-Apr-10 00:00:00.0000, 6.593065945262462E+07, -3.032051161865549E+08, 2.859987472976723E+07,
2461512.500000000, A.D. 2027-Apr-17 00:00:00.0000, 7.812385817485179E+07, -2.985527931798676E+08, 2.915271098744313E+07,
2461519.500000000, A.D. 2027-Apr-24 00:00:00.0000, 9.018972155398430E+07, -2.934139676430118E+08, 2.965803646419404E+07,
2461526.500000000, A.D. 2027-May-01 00:00:00.0000, 1.021063057445935E+08, -2.877896006869670E+08, 3.011427813405666E+07,
2461533.500000000, A.D. 2027-May-08 00:00:00.0000, 1.138513276356056E+08, -2.816817810799198E+08, 3.051992508136374E+07,
2461540.500000000, A.D. 2027-May-15 00:00:00.0000, 1.254022303162657E+08, -2.750937768889204E+08, 3.087353768505715E+07,
2461547.500000000, A.D. 2027-May-22 00:00:00.0000, 1.367362531189479E+08, -2.680300844197044E+08, 3.117375717345804E+07,
2461554.500000000, A.D. 2027-May-29 00:00:00.0000, 1.478305094828723E+08, -2.604964750210517E+08, 3.141931504187803E+07,
2461561.500000000, A.D. 2027-Jun-05 00:00:00.0000, 1.586620732957880E+08, -2.525000356979943E+08, 3.160904241817304E+07,
2461568.500000000, A.D. 2027-Jun-12 00:00:00.0000, 1.692080713478104E+08, -2.440492021704849E+08, 3.174187949616988E+07,
2461575.500000000, A.D. 2027-Jun-19 00:00:00.0000, 1.794457810693343E+08, -2.351537843889859E+08, 3.181688488167980E+07,
2461582.500000000, A.D. 2027-Jun-26 00:00:00.0000, 1.893527331926936E+08, -2.258249838748110E+08, 3.183324468663465E+07,
2461589.500000000, A.D. 2027-Jul-03 00:00:00.0000, 1.989068186858408E+08, -2.160754020378994E+08, 3.179028123614391E+07,
2461596.500000000, A.D. 2027-Jul-10 00:00:00.0000, 2.080863990684617E+08, -2.059190387035843E+08, 3.168746125762877E+07,
2461603.500000000, A.D. 2027-Jul-17 00:00:00.0000, 2.168704190835472E+08, -1.953712802301632E+08, 3.152440341443647E+07,
2461610.500000000, A.D. 2027-Jul-24 00:00:00.0000, 2.252385206949454E+08, -1.844488767477896E+08, 3.130088503317250E+07,
2461617.500000000, A.D. 2027-Jul-31 00:00:00.0000, 2.331711575370822E+08, -1.731699079033811E+08, 3.101684788085996E+07,
2461624.500000000, A.D. 2027-Aug-07 00:00:00.0000, 2.406497082510610E+08, -1.615537357625062E+08, 3.067240298942326E+07,
2461631.500000000, A.D. 2027-Aug-14 00:00:00.0000, 2.476565849760867E+08, -1.496209451201377E+08, 3.026783461167558E+07,
2461638.500000000, A.D. 2027-Aug-21 00:00:00.0000, 2.541753361467170E+08, -1.373932747790836E+08, 2.980360287979830E+07,
2461645.500000000, A.D. 2027-Aug-28 00:00:00.0000, 2.601907455640640E+08, -1.248935389907763E+08, 2.928034486749751E+07,
2461652.500000000, A.D. 2027-Sep-04 00:00:00.0000, 2.656889251423604E+08, -1.121455371661389E+08, 2.869887430676474E+07,
2461659.500000000, A.D. 2027-Sep-11 00:00:00.0000, 2.706573985977894E+08, -9.917395333381838E+07, 2.806017999404071E+07,
2461666.500000000, A.D. 2027-Sep-18 00:00:00.0000, 2.750851749917250E+08, -8.600424700503573E+07, 2.736542280679321E+07,
2461673.500000000, A.D. 2027-Sep-25 00:00:00.0000, 2.789628112880289E+08, -7.266253671033594E+07, 2.661593131725682E+07,
2461680.500000000, A.D. 2027-Oct-02 00:00:00.0000, 2.822824631093001E+08, -5.917547752596470E+07, 2.581319604012701E+07,
2461687.500000000, A.D. 2027-Oct-09 00:00:00.0000, 2.850379230239829E+08, -4.557013406747724E+07, 2.495886237813877E+07,
2461694.500000000, A.D. 2027-Oct-16 00:00:00.0000, 2.872246459516558E+08, -3.187385057051623E+07, 2.405472234335292E+07,
2461701.500000000, A.D. 2027-Oct-23 00:00:00.0000, 2.888397616919054E+08, -1.811411968145736E+07, 2.310270513576207E+07,
2461708.500000000, A.D. 2027-Oct-30 00:00:00.0000, 2.898820749212249E+08, -4.318450968425658E+06, 2.210486671627241E+07,
2461715.500000000, A.D. 2027-Nov-06 00:00:00.0000, 2.903520517059964E+08, 9.485760392009897E+06, 2.106337871339227E+07,
2461722.500000000, A.D. 2027-Nov-13 00:00:00.0000, 2.902517909951782E+08, 2.327136114679070E+07, 1.998051683087428E+07,
2461729.500000000, A.D. 2027-Nov-20 00:00:00.0000, 2.895849846343987E+08, 3.701156009347085E+07, 1.885864846915942E+07,
2461736.500000000, A.D. 2027-Nov-27 00:00:00.0000, 2.883568683332427E+08, 5.068004246775581E+07, 1.770021981518717E+07,
2461743.500000000, A.D. 2027-Dec-04 00:00:00.0000, 2.865741625422286E+08, 6.425107836233473E+07, 1.650774282417570E+07,
2461750.500000000, A.D. 2027-Dec-11 00:00:00.0000, 2.842450038005306E+08, 7.769962323994005E+07, 1.528378222532502E+07,
2461757.500000000, A.D. 2027-Dec-18 00:00:00.0000, 2.813788680363711E+08, 9.100140941288440E+07, 1.403094265137187E+07,
2461764.500000000, A.D. 2027-Dec-25 00:00:00.0000, 2.779864872421029E+08, 1.041330278898692E+08, 1.275185602045556E+07,
2461771.500000000, A.D. 2028-Jan-01 00:00:00.0000, 2.740797608669371E+08, 1.170720001984969E+08, 1.144916929733872E+07,
$$EOE